HST                     
1 20580U 90037B   26068.15977042  .00009063  00000+0  30023-3 0  9999
2 20580  28.4717  43.6133 0001837 120.9992 239.0785 15.29473555773239
STARLINK-33638          
1 63436U 25069D   26068.43606131  .00022588  00000+0  77283-3 0  9994
2 63436  53.1577 143.8151 0001288 102.7718 257.3427 15.30183365 53362
